UNKNOWN                 
1 82873U          25239.44834521  .00002784  00000+0  12424-2 0  9995
2 82873 100.0015 119.0526 0037487 222.7922 137.0332 14.23364733605967
UNKNOWN                 
1 82875U          25238.21417203  .00000334  00000+0  10150-3 0  9999
2 82875  98.6638 224.3246 0378070 234.2843 122.2608 14.14860026529128
UNKNOWN                 
1 82893U          25239.57327948  .00007703  00000+0  30478-2 0  9996
2 82893  98.9618 351.4701 0023016 356.4272   3.6741 14.29068653408653
UNKNOWN                 
1 82912U          25235.80086564  .00000732  00000+0  33764-3 0  9993
2 82912  65.8348  69.6930 0778272 319.1169  35.3906 13.26624752564609
UNKNOWN                 
1 82961U          25234.42732956  .00007451  00000+0  12104-1 0  9995
2 82961  99.9015  34.5977 0406164 268.2153  87.2415 13.20032765540874
UNKNOWN                 
1 82965U          25238.97021204  .00000932  00000+0  13194-2 0  9998
2 82965 100.1210 315.0139 0002623 136.9194 223.2150 13.59688720509801
UNKNOWN                 
1 83903U          25239.42354899 -.00000086  00000+0  00000+0 0  9991
2 83903   6.4509 291.5452 0125499 247.5281 139.3284  0.99116508 42607
UNKNOWN                 
1 83934U          25239.39644422 -.00000082  00000+0  00000+0 0  9991
2 83934   6.0270 298.2056 0232312 267.3552 120.2624  1.02662302 44185
UNKNOWN                 
1 83970U          25223.46847977  .00004695  00000+0  49216-2 0  9990
2 83970  18.3471 358.9472 5079418 246.6278  53.2784  5.31009163189645
UNKNOWN                 
1 84006U          25239.36613563 -.00000039  00000+0  00000+0 0  9993
2 84006  22.6668 198.9603 6109435  23.5918 355.2546  2.16230890 81901
UNKNOWN                 
1 84188U          25239.49958085  .00010091  00000+0  17222-1 0  9993
2 84188  64.8741 343.3947 3865269  30.6105 347.2090  7.19699683 33467
UNKNOWN                 
1 84236U          25228.13669582 -.00000088  00000+0 -43939-3 0  9990
2 84236   9.3634  28.0499 6885020 349.2911   1.3310  2.62432316199589
UNKNOWN                 
1 84292U          25239.24273160  .00005577  00000+0  28780-2 0  9991
2 84292  23.8611 309.2283 4577980 341.0754   6.3852  6.20374338221385
UNKNOWN                 
1 84406U          25228.19604102  .00000374  00000+0  21964-2 0  9991
2 84406 101.7153  10.8470 0043302 269.7653 269.0266 12.67136614 34298
UNKNOWN                 
1 84407U          25235.64770742 -.00000202  00000+0  11311-1 0  9999
2 84407  19.5856 355.1752 7202816   2.1522 359.5628  2.05742102 73589
UNKNOWN                 
1 84437U          25228.06515417 -.00000394  00000+0  00000+0 0  9999
2 84437  18.5549 286.6826 7033165 205.8865  88.1603  1.97333478 10605
UNKNOWN                 
1 84575U          25239.07558286 -.00000030  00000+0  48798-2 0  9992
2 84575  18.0748 194.1876 7122432 316.7244   5.4843  2.19896050 63095
UNKNOWN                 
1 84932U          25239.50755152  .00000731  00000+0  76900-2 0  9991
2 84932   2.3761 302.7859 6555351 299.5437 136.8753  2.99731613128566
UNKNOWN                 
1 85004U          25239.19661888  .00001033  00000+0  33242-3 0  9998
2 85004  98.4048 211.9558 0048519 124.6674 251.3100 14.40671186615417
UNKNOWN                 
1 85010U          25238.12780693  .00000787  00000+0  87126-3 0  9998
2 85010  99.2595 103.3468 0024255 176.1962 338.6665 13.74732710588991
UNKNOWN                 
1 85015U          25237.30203540  .00000356  00000+0  76817-4 0  9991
2 85015  74.0457 247.5933 0015177 186.8703 173.2258 14.62091123626613
UNKNOWN                 
1 85023U          25238.93996216  .00023468  00000+0  42328-2 0  9996
2 85023  99.8519 232.1999 0001435  93.6325 296.6383 14.66491631612992
UNKNOWN                 
1 85027U          25238.65136590  .00000125  00000+0  19201-3 0  9990
2 85027  66.0436   6.1930 0184608 246.4409 111.7170 13.74178313589765
UNKNOWN                 
1 85047U          25239.59659593  .00010007  00000+0  17645-1 0  9997
2 85047 102.3259 182.3940 0112655 280.8065  78.0391 13.40566167562284
UNKNOWN                 
1 85061U          25238.68947289  .00003077  00000+0  12002-1 0  9995
2 85061 102.3803 212.7584 0302938  39.7607 140.6765 12.76061377541992
UNKNOWN                 
1 85100U          25238.88046389  .00000308  00000+0  10495-3 0  9992
2 85100  74.0442  62.1688 0013054 314.3896 112.3408 14.40576195617819
UNKNOWN                 
1 85106U          25239.49386898  .00000543  00000+0  64380-3 0  9991
2 85106 100.0551 335.1121 0009080 284.8052 137.6236 13.72707296588357
UNKNOWN                 
1 85151U          25239.07752605  .00016531  00000+0  25859-2 0  9999
2 85151  98.4125  98.8997 0011699 111.2201 249.0256 14.72797351463653
UNKNOWN                 
1 85210U          25235.66954440  .00000984  00000+0  97353-3 0  9991
2 85210  99.8472  13.7108 0216756 238.2390 135.4470 13.71288027586935
UNKNOWN                 
1 85217U          25239.53980443  .00003035  00000+0  81441-3 0  9991
2 85217  98.0295 341.0330 0211811  92.2055 270.3401 14.36311093612466
UNKNOWN                 
1 85237U          25239.11940446  .00007852  00000+0  17335-2 0  9997
2 85237  65.5331 136.8792 0512047  77.4055 288.3764 13.99178898593281
UNKNOWN                 
1 85238U          25238.07185549  .00000023  00000+0  54066-4 0  9994
2 85238  99.0470 170.4469 0064021 133.9232 239.0562 13.88313185595764
UNKNOWN                 
1 85246U          25238.27325816  .00000763  00000+0  28927-3 0  9995
2 85246  97.9901 251.9714 0222974 263.7613  93.8127 14.21038585607667
UNKNOWN                 
1 85373U          25238.91085742  .00001573  00000+0  11084-2 0  9993
2 85373 100.4328 260.1368 0048050 163.2619 316.2325 13.99354415597048
UNKNOWN                 
1 87014U          25239.38250449  .00002095  00000+0  32891-2 0  9996
2 87014 100.5015 197.7126 0046088 127.8236  23.7133 13.51129060576412
UNKNOWN                 
1 87029U 99025    25223.90874510  .00000896  00000+0  57498-3 0  9997
2 87029  98.7707 263.4512 0081712 233.7299 125.6300 14.04134424575767
UNKNOWN                 
1 87042U          25239.36774789  .00000615  00000+0  39156-3 0  9991
2 87042  98.7284 286.3870 0043867  39.5477 320.8880 14.06854630538864
UNKNOWN                 
1 87051U          25238.38119489  .00000847  00000+0  30755-3 0  9995
2 87051  65.7266 152.5283 0727015 190.5931 167.9071 13.45085739574003
UNKNOWN                 
1 87054U          25239.35090981  .00002335  00000+0  13429-2 0  9993
2 87054 100.1002 105.6399 0012646 284.0131  75.9630 14.10410911601189
UNKNOWN                 
1 87071U          25238.70786656  .00001771  00000+0  65627-3 0  9992
2 87071  61.2162 232.4796 0494862 183.9835 175.7188 13.84025909587521
UNKNOWN                 
1 87113U          25239.47678584  .00183341  00000+0  38345-2 0  9994
2 87113  65.6184  48.8456 0095034 252.3980 106.6767 15.39878514619401
UNKNOWN                 
1 87129U          25236.72655506  .00000135  00000+0  13074-2 0  9996
2 87129 102.2638 326.3782 0029668 282.9830  76.7922 12.42755054533004
UNKNOWN                 
1 87159U          25235.78660526  .00000973  00000+0  11360-2 0  9998
2 87159  90.3428  65.4192 0105275 226.1160 133.1270 13.65688076541549
UNKNOWN                 
1 87163U          25238.81668905  .00003014  00000+0  93517-3 0  9993
2 87163  65.5998 142.2913 0645880 113.1068 253.9383 13.62988143562801
UNKNOWN                 
1 87164U          25237.74438965  .00002534  00000+0  55208-3 0  9997
2 87164  65.2030 283.8781 0098091 107.6861 253.4976 14.56971519619883
UNKNOWN                 
1 87204U          25239.08926782  .00001747  00000+0  70504-3 0  9991
2 87204  98.5489 102.0807 0045041 282.2694  77.3446 14.28631016610067
UNKNOWN                 
1 87211U          25238.73653189  .00003190  00000+0  90662-3 0  9999
2 87211  99.0807 230.9385 0055806 119.1020  60.6832 14.45231320692166
UNKNOWN                 
1 87214U          25237.21911308  .00001635  00000+0  14957-2 0  9998
2 87214 100.3204 225.2043 0073340 171.7955 188.4414 13.83614922585090
UNKNOWN                 
1 87237U          25239.12058508  .00000271  00000+0  23920-3 0  9995
2 87237  99.2722 294.7611 0103177 214.6417 175.8357 13.91624690596797
UNKNOWN                 
1 87239U          25239.12440121  .00009346  00000+0  24449-2 0  9991
2 87239  82.8760 174.0133 0024503  27.5167 332.7321 14.49096403612272
UNKNOWN                 
1 87245U          25239.55887988  .00011203  00000+0  22586-2 0  9996
2 87245  65.6496 334.0696 0444483 174.5889 211.2124 14.14166901599047
UNKNOWN                 
1 87271U          25239.19295420  .00006258  00000+0  11853-2 0  9998
2 87271  65.7553 164.8940 0429845 130.6061 233.3264 14.19392073597091
UNKNOWN                 
1 87280U          25239.43905076  .00000284  00000+0  56158-3 0  9991
2 87280  64.6152 140.7287 0129598 281.7419  76.9104 13.48420734519385
UNKNOWN                 
1 87293U          25238.81116462  .00006932  00000+0  14653-2 0  9998
2 87293  65.8968  71.5018 0425259  58.9801 305.2322 14.15859520598709
UNKNOWN                 
1 87300U          25239.38605327  .00001170  00000+0  84436-3 0  9999
2 87300 100.0734 211.1882 0027486 219.7284 140.1863 13.98909290598104
UNKNOWN                 
1 87304U          25239.49036660  .00001722  00000+0  26135-3 0  9998
2 87304  74.0190 170.8005 0018159 172.5692 187.5754 14.74829670630668
UNKNOWN                 
1 87320U          25238.31158856  .00001841  00000+0  11887-2 0  9997
2 87320  66.5973 342.7680 0416949 125.1415 238.9472 13.69537458578893
UNKNOWN                 
1 87334U          25239.34273148  .00013596  00000+0  88543-2 0  9991
2 87334  90.0107 271.6347 0069284 214.5645 145.1021 14.01142606371583
UNKNOWN                 
1 87335U          25239.53577228  .00014931  00000+0  95322-2 0  9996
2 87335  89.9973 268.1180 0087992 191.9003 168.0099 14.01527146371934
